[{"OBJECT_NAME":"EXO-0","OBJECT_ID":"2023-174DK","EPOCH":"2026-03-09T17:03:04.419648","MEAN_MOTION":15.32821991,"ECCENTRICITY":0.00098779,"INCLINATION":97.3864,"RA_OF_ASC_NODE":148.9039,"ARG_OF_PERICENTER":157.1125,"MEAN_ANOMALY":203.0559,"EPHEMERIS_TYPE":0,"CLASSIFICATION_TYPE":"U","NORAD_CAT_ID":59175,"ELEMENT_SET_NO":999,"REV_AT_EPOCH":12979,"BSTAR":0.00036716083,"MEAN_MOTION_DOT":0.00011582,"MEAN_MOTION_DDOT":0},{"OBJECT_NAME":"STARLINK-36518","OBJECT_ID":"2026-008J","EPOCH":"2026-03-09T10:47:08.437344","MEAN_MOTION":15.27570262,"ECCENTRICITY":0.00022514,"INCLINATION":43.0009,"RA_OF_ASC_NODE":206.7192,"ARG_OF_PERICENTER":268.7225,"MEAN_ANOMALY":91.3369,"EPHEMERIS_TYPE":0,"CLASSIFICATION_TYPE":"U","NORAD_CAT_ID":67453,"ELEMENT_SET_NO":999,"REV_AT_EPOCH":953,"BSTAR":0.0015077101,"MEAN_MOTION_DOT":0.00041449,"MEAN_MOTION_DDOT":0}]
