EXO-0                   
1 59175U 23174DK  26068.71046781  .00011582  00000+0  36716-3 0  9992
2 59175  97.3864 148.9039 0009878 157.1125 203.0559 15.32821991129797
STARLINK-36518          
1 67453U 26008J   26068.44940321  .00041449  00000+0  15077-2 0  9993
2 67453  43.0009 206.7192 0002251 268.7225  91.3369 15.27570262  9537
